[{"OBJECT_NAME":"STARLINK-1526","OBJECT_ID":"2020-055C","EPOCH":"2026-03-10T00:00:02.999808","MEAN_MOTION":15.19094638,"ECCENTRICITY":8.938e-5,"INCLINATION":53.1067,"RA_OF_ASC_NODE":124.7929,"ARG_OF_PERICENTER":56.7447,"MEAN_ANOMALY":353.5398,"EPHEMERIS_TYPE":0,"CLASSIFICATION_TYPE":"U","NORAD_CAT_ID":46029,"ELEMENT_SET_NO":999,"REV_AT_EPOCH":569,"BSTAR":0.0056326704,"MEAN_MOTION_DOT":0.00121352,"MEAN_MOTION_DDOT":0},{"OBJECT_NAME":"FENGYUN 1C DEB","OBJECT_ID":"1999-025CHJ","EPOCH":"2026-03-08T11:31:09.458976","MEAN_MOTION":14.95691878,"ECCENTRICITY":0.01420749,"INCLINATION":98.9647,"RA_OF_ASC_NODE":255.4325,"ARG_OF_PERICENTER":95.8243,"MEAN_ANOMALY":265.919,"EPHEMERIS_TYPE":0,"CLASSIFICATION_TYPE":"U","NORAD_CAT_ID":31820,"ELEMENT_SET_NO":999,"REV_AT_EPOCH":99536,"BSTAR":0.0019551569,"MEAN_MOTION_DOT":0.00026677,"MEAN_MOTION_DDOT":0}]
